start=new Date('2023-01-03T00:00:00.000Z').valueOf();
sats=[{"DECAY_DATE":null,"NORAD_CAT_ID":"49738","CLASSIFICATION_TYPE":"U","EPOCH":"2023-01-02T15:06:05.588640","MEAN_MOTION":"15.08830047","OBJECT_NAME":"STARLINK-3143","PERIOD":"95.438","MEAN_ANOMALY":"328.5853","OBJECT_ID":"2021-115Q","CENTER_NAME":"EARTH","APOAPSIS":"541.671","SEMIMAJOR_AXIS":"6917.911","MEAN_ELEMENT_THEORY":"SGP4","FILE":"3729873","REF_FRAME":"TEME","ARG_OF_PERICENTER":"31.5303","TLE_LINE1":"1 49738U 21115Q   23002.62923135  .00007427  00000-0  48437-3 0  9998","BSTAR":"0.00048437000000","ECCENTRICITY":"0.00027400","MEAN_MOTION_DOT":"0.00007427","TLE_LINE2":"2 49738  53.2161 325.8097 0002740  31.5303 328.5853 15.08830047 60100","RCS_SIZE":"LARGE","TIME_SYSTEM":"UTC","MEAN_MOTION_DDOT":"0.0000000000000","REV_AT_EPOCH":"6010","RA_OF_ASC_NODE":"325.8097","PERIAPSIS":"537.880","COUNTRY_CODE":"US","GP_ID":"222064331","INCLINATION":"53.2161","EPHEMERIS_TYPE":"0","OBJECT_TYPE":"PAYLOAD","LAUNCH_DATE":"2021-12-02","ELEMENT_SET_NO":"999","SITE":"AFETR"},{"ARG_OF_PERICENTER":"68.7645","TLE_LINE1":"1 49739U 21115R   23002.60990368  .00016520  00000-0  10534-2 0  9999","REF_FRAME":"TEME","APOAPSIS":"540.545","SEMIMAJOR_AXIS":"6917.857","MEAN_ELEMENT_THEORY":"SGP4","FILE":"3729583","CENTER_NAME":"EARTH","MEAN_ANOMALY":"291.3475","OBJECT_ID":"2021-115R","PERIOD":"95.437","OBJECT_NAME":"STARLINK-3155","MEAN_MOTION":"15.08847734","CLASSIFICATION_TYPE":"U","EPOCH":"2023-01-02T14:38:15.677952","NORAD_CAT_ID":"49739","DECAY_DATE":null,"SITE":"AFETR","ELEMENT_SET_NO":"999","LAUNCH_DATE":"2021-12-02","EPHEMERIS_TYPE":"0","OBJECT_TYPE":"PAYLOAD","INCLINATION":"53.2152","GP_ID":"222031537","PERIAPSIS":"538.899","COUNTRY_CODE":"US","RA_OF_ASC_NODE":"335.9065","MEAN_MOTION_DDOT":"0.0000000000000","REV_AT_EPOCH":"5995","TIME_SYSTEM":"UTC","RCS_SIZE":"LARGE","TLE_LINE2":"2 49739  53.2152 335.9065 0001190  68.7645 291.3475 15.08847734 59956","ECCENTRICITY":"0.00011900","MEAN_MOTION_DOT":"0.00016520","BSTAR":"0.00105340000000"},{"PERIOD":"95.438","OBJECT_NAME":"STARLINK-3226","MEAN_MOTION":"15.08831726","EPOCH":"2023-01-02T07:25:03.601344","CLASSIFICATION_TYPE":"U","DECAY_DATE":null,"NORAD_CAT_ID":"49740","CENTER_NAME":"EARTH","MEAN_ANOMALY":"327.2921","OBJECT_ID":"2021-115S","REF_FRAME":"TEME","MEAN_ELEMENT_THEORY":"SGP4","FILE":"3729583","APOAPSIS":"541.700","SEMIMAJOR_AXIS":"6917.906","TLE_LINE1":"1 49740U 21115S   23002.30906946  .00020837  00000-0  13237-2 0  9996","ARG_OF_PERICENTER":"32.8244","TLE_LINE2":"2 49740  53.2180 327.2475 0002789  32.8244 327.2921 15.08831726 60052","MEAN_MOTION_DOT":"0.00020837","ECCENTRICITY":"0.00027890","BSTAR":"0.00132370000000","RA_OF_ASC_NODE":"327.2475","MEAN_MOTION_DDOT":"0.0000000000000","REV_AT_EPOCH":"6005","TIME_SYSTEM":"UTC","RCS_SIZE":"LARGE","OBJECT_TYPE":"PAYLOAD","EPHEMERIS_TYPE":"0","INCLINATION":"53.2180","GP_ID":"222031288","COUNTRY_CODE":"US","PERIAPSIS":"537.841","SITE":"AFETR","ELEMENT_SET_NO":"999","LAUNCH_DATE":"2021-12-02"},{"OBJECT_ID":"2021-115T","MEAN_ANOMALY":"333.5498","CENTER_NAME":"EARTH","NORAD_CAT_ID":"49741","DECAY_DATE":null,"CLASSIFICATION_TYPE":"U","EPOCH":"2023-01-02T07:14:27.488256","MEAN_MOTION":"15.08836697","OBJECT_NAME":"STARLINK-3244","PERIOD":"95.438","ARG_OF_PERICENTER":"26.5639","TLE_LINE1":"1 49741U 21115T   23002.30170704  .00014621  00000-0  93486-3 0  9991","SEMIMAJOR_AXIS":"6917.890","APOAPSIS":"541.722","MEAN_ELEMENT_THEORY":"SGP4","FILE":"3729865","REF_FRAME":"TEME","RCS_SIZE":"LARGE","TIME_SYSTEM":"UTC","REV_AT_EPOCH":"6116","MEAN_MOTION_DDOT":"0.0000000000000","RA_OF_ASC_NODE":"327.2778","BSTAR":"0.00093486000000","ECCENTRICITY":"0.00028420","MEAN_MOTION_DOT":"0.00014621","TLE_LINE2":"2 49741  53.2172 327.2778 0002842  26.5639 333.5498 15.08836697 61162","LAUNCH_DATE":"2021-12-02","ELEMENT_SET_NO":"999","SITE":"AFETR","PERIAPSIS":"537.789","COUNTRY_CODE":"US","GP_ID":"222041693","INCLINATION":"53.2172","EPHEMERIS_TYPE":"0","OBJECT_TYPE":"PAYLOAD"},{"MEAN_MOTION_DDOT":"0.0000000000000","REV_AT_EPOCH":"6009","RA_OF_ASC_NODE":"326.0271","RCS_SIZE":"LARGE","TIME_SYSTEM":"UTC","ECCENTRICITY":"0.00027350","MEAN_MOTION_DOT":"-0.00002483","TLE_LINE2":"2 49742  53.2183 326.0271 0002735  27.4573 332.6563 15.08849896 60097","BSTAR":"-0.00013787000000","SITE":"AFETR","LAUNCH_DATE":"2021-12-02","ELEMENT_SET_NO":"999","INCLINATION":"53.2183","EPHEMERIS_TYPE":"0","OBJECT_TYPE":"PAYLOAD","PERIAPSIS":"537.823","COUNTRY_CODE":"US","GP_ID":"222032778","CENTER_NAME":"EARTH","MEAN_ANOMALY":"332.6563","OBJECT_ID":"2021-115U","OBJECT_NAME":"STARLINK-3202","PERIOD":"95.437","NORAD_CAT_ID":"49742","DECAY_DATE":null,"CLASSIFICATION_TYPE":"U","MEAN_MOTION":"15.08849896","EPOCH":"2023-01-02T13:57:11.012544","ARG_OF_PERICENTER":"27.4573","TLE_LINE1":"1 49742U 21115U   23002.58137746 -.00002483  00000-0 -13787-3 0  9992","REF_FRAME":"TEME","APOAPSIS":"541.607","SEMIMAJOR_AXIS":"6917.850","MEAN_ELEMENT_THEORY":"SGP4","FILE":"3729583"},{"RA_OF_ASC_NODE":"324.5915","MEAN_MOTION_DDOT":"0.0000000000000","REV_AT_EPOCH":"6014","TIME_SYSTEM":"UTC","RCS_SIZE":"LARGE","TLE_LINE2":"2 49743  53.2167 324.5915 0002632  31.1739 328.9409 15.08837519 60142","MEAN_MOTION_DOT":"0.00004247","ECCENTRICITY":"0.00026320","BSTAR":"0.00028482000000","SITE":"AFETR","ELEMENT_SET_NO":"999","LAUNCH_DATE":"2021-12-02","OBJECT_TYPE":"PAYLOAD","EPHEMERIS_TYPE":"0","INCLINATION":"53.2167","GP_ID":"222065081","COUNTRY_CODE":"US","PERIAPSIS":"537.932","CENTER_NAME":"EARTH","OBJECT_ID":"2021-115V","MEAN_ANOMALY":"328.9409","PERIOD":"95.438","OBJECT_NAME":"STARLINK-3239","MEAN_MOTION":"15.08837519","EPOCH":"2023-01-02T21:38:12.971328","CLASSIFICATION_TYPE":"U","DECAY_DATE":null,"NORAD_CAT_ID":"49743","TLE_LINE1":"1 49743U 21115V   23002.90153902  .00004247  00000-0  28482-3 0  9997","ARG_OF_PERICENTER":"31.1739","REF_FRAME":"TEME","MEAN_ELEMENT_THEORY":"SGP4","FILE":"3729873","APOAPSIS":"541.574","SEMIMAJOR_AXIS":"6917.888"},{"TLE_LINE1":"1 49744U 21115W   23002.91994422  .00003727  00000-0  25222-3 0  9990","ARG_OF_PERICENTER":"23.3903","REF_FRAME":"TEME","MEAN_ELEMENT_THEORY":"SGP4","FILE":"3729873","SEMIMAJOR_AXIS":"6917.914","APOAPSIS":"541.740","CENTER_NAME":"EARTH","MEAN_ANOMALY":"336.7218","OBJECT_ID":"2021-115W","OBJECT_NAME":"STARLINK-3231","PERIOD":"95.438","DECAY_DATE":null,"NORAD_CAT_ID":"49744","EPOCH":"2023-01-02T22:04:43.180608","MEAN_MOTION":"15.08828882","CLASSIFICATION_TYPE":"U","SITE":"AFETR","LAUNCH_DATE":"2021-12-02","ELEMENT_SET_NO":"999","INCLINATION":"53.2177","OBJECT_TYPE":"PAYLOAD","EPHEMERIS_TYPE":"0","COUNTRY_CODE":"US","PERIAPSIS":"537.819","GP_ID":"222065333","REV_AT_EPOCH":"6014","MEAN_MOTION_DDOT":"0.0000000000000","RA_OF_ASC_NODE":"324.5039","RCS_SIZE":"MEDIUM","TIME_SYSTEM":"UTC","MEAN_MOTION_DOT":"0.00003727","ECCENTRICITY":"0.00028340","TLE_LINE2":"2 49744  53.2177 324.5039 0002834  23.3903 336.7218 15.08828882 60149","BSTAR":"0.00025222000000"},{"ECCENTRICITY":"0.00027270","MEAN_MOTION_DOT":"-0.00004659","TLE_LINE2":"2 49745  53.2153 327.8364 0002727  27.4092 332.7044 15.08821891 60030","BSTAR":"-0.00027490000000","REV_AT_EPOCH":"6003","MEAN_MOTION_DDOT":"0.0000000000000","RA_OF_ASC_NODE":"327.8364","RCS_SIZE":"LARGE","TIME_SYSTEM":"UTC","INCLINATION":"53.2153","EPHEMERIS_TYPE":"0","OBJECT_TYPE":"PAYLOAD","PERIAPSIS":"537.914","COUNTRY_CODE":"US","GP_ID":"222032540","SITE":"AFETR","LAUNCH_DATE":"2021-12-02","ELEMENT_SET_NO":"999","OBJECT_NAME":"STARLINK-3241","PERIOD":"95.439","NORAD_CAT_ID":"49745","DECAY_DATE":null,"MEAN_MOTION":"15.08821891","EPOCH":"2023-01-02T04:19:34.689504","CLASSIFICATION_TYPE":"U","CENTER_NAME":"EARTH","OBJECT_ID":"2021-115X","MEAN_ANOMALY":"332.7044","REF_FRAME":"TEME","SEMIMAJOR_AXIS":"6917.936","APOAPSIS":"541.687","MEAN_ELEMENT_THEORY":"SGP4","FILE":"3729583","ARG_OF_PERICENTER":"27.4092","TLE_LINE1":"1 49745U 21115X   23002.18026261 -.00004659  00000-0 -27490-3 0  9993"},{"MEAN_MOTION_DOT":"0.00005030","ECCENTRICITY":"0.00027270","TLE_LINE2":"2 49746  53.2174 324.4669 0002727  25.8860 334.2268 15.08836359 61255","BSTAR":"0.00033396000000","REV_AT_EPOCH":"6125","MEAN_MOTION_DDOT":"0.0000000000000","RA_OF_ASC_NODE":"324.4669","RCS_SIZE":"MEDIUM","TIME_SYSTEM":"UTC","INCLINATION":"53.2174","OBJECT_TYPE":"PAYLOAD","EPHEMERIS_TYPE":"0","COUNTRY_CODE":"US","PERIAPSIS":"537.870","GP_ID":"222041647","SITE":"AFETR","LAUNCH_DATE":"2021-12-02","ELEMENT_SET_NO":"999","OBJECT_NAME":"STARLINK-3233","PERIOD":"95.438","DECAY_DATE":null,"NORAD_CAT_ID":"49746","MEAN_MOTION":"15.08836359","CLASSIFICATION_TYPE":"U","EPOCH":"2023-01-02T22:15:18.913536","CENTER_NAME":"EARTH","MEAN_ANOMALY":"334.2268","OBJECT_ID":"2021-115Y","REF_FRAME":"TEME","FILE":"3729866","MEAN_ELEMENT_THEORY":"SGP4","SEMIMAJOR_AXIS":"6917.892","APOAPSIS":"541.643","TLE_LINE1":"1 49746U 21115Y   23002.92730224  .00005030  00000-0  33396-3 0  9991","ARG_OF_PERICENTER":"25.8860"},{"BSTAR":"0.00016079000000","TLE_LINE2":"2 49747  53.2185 324.5280 0002888  24.0479 336.0647 15.08831972 60147","ECCENTRICITY":"0.00028880","MEAN_MOTION_DOT":"0.00002271","TIME_SYSTEM":"UTC","RCS_SIZE":"LARGE","RA_OF_ASC_NODE":"324.5280","REV_AT_EPOCH":"6014","MEAN_MOTION_DDOT":"0.0000000000000","GP_ID":"222064582","PERIAPSIS":"537.772","COUNTRY_CODE":"US","EPHEMERIS_TYPE":"0","OBJECT_TYPE":"PAYLOAD","INCLINATION":"53.2185","ELEMENT_SET_NO":"999","LAUNCH_DATE":"2021-12-02","SITE":"AFETR","MEAN_MOTION":"15.08831972","CLASSIFICATION_TYPE":"U","EPOCH":"2023-01-02T21:59:24.944352","NORAD_CAT_ID":"49747","DECAY_DATE":null,"PERIOD":"95.438","OBJECT_NAME":"STARLINK-3247","OBJECT_ID":"2021-115Z","MEAN_ANOMALY":"336.0647","CENTER_NAME":"EARTH","SEMIMAJOR_AXIS":"6917.905","APOAPSIS":"541.768","FILE":"3729873","MEAN_ELEMENT_THEORY":"SGP4","REF_FRAME":"TEME","ARG_OF_PERICENTER":"24.0479","TLE_LINE1":"1 49747U 21115Z   23002.91626093  .00002271  00000-0  16079-3 0  9992"}];
